{
  "norad_id": 39613,
  "name": "EXPRESS-AT2",
  "history": [
    {
      "epoch": "2026-03-11T12:17:49.138656Z",
      "apogee_km": 35792.17768249952,
      "perigee_km": 35781.143998200656,
      "latitude_deg": -0.023032694518454123,
      "longitude_deg": 139.83689986261604,
      "height_km": 35790.43582650811,
      "semi_major_axis_km": 42164.79784035009,
      "eccentricity": 0.00013084,
      "inclination_deg": 0.0166,
      "raan_deg": 193.7113,
      "arg_perigee_deg": 80.7943,
      "mean_anomaly_deg": 218.9521,
      "mean_motion_rev_day": 1.0027155
    }
  ]
}